{
  "type": "FeatureCollection",
  "features": [
    {
      "type": "Feature",
      "properties": {
        "norad_id": 43260,
        "name": "GAOFEN-1 03",
        "group": "resource",
        "lat": 17.910979916975947,
        "lon": 44.520571279747436,
        "alt_km": 640.5031586303221,
        "timestamp": "2025-12-15T11:38:36.815251+00:00",
        "meta_object_name": "GAOFEN-1 03",
        "meta_object_id": "2018-031B",
        "meta_epoch": "2025-12-14T22:32:59.152128",
        "meta_mean_motion": 14.764418,
        "meta_eccentricity": 0.00018722,
        "meta_inclination": 98.0797,
        "meta_ra_of_asc_node": 46.6064,
        "meta_arg_of_pericenter": 311.6194,
        "meta_mean_anomaly": 48.4855,
        "meta_ephemeris_type": 0,
        "meta_classification_type": "U",
        "meta_norad_cat_id": 43260,
        "meta_element_set_no": 999,
        "meta_rev_at_epoch": 41550,
        "meta_bstar": 0.00016750816,
        "meta_mean_motion_dot": 1.113e-05,
        "meta_mean_motion_ddot": 0,
        "tle_line1": "1 43260U 18031B   25348.93957352  .00001113  00000+0  16751-3 0  9991",
        "tle_line2": "2 43260  98.0797  46.6064 0001872 311.6194  48.4855 14.76441800415500"
      },
      "geometry": {
        "type": "Point",
        "coordinates": [
          44.520571279747436,
          17.910979916975947
        ]
      }
    },
    {
      "type": "Feature",
      "properties": {
        "norad_id": 43262,
        "name": "GAOFEN-1 04",
        "group": "resource",
        "lat": 31.83588219662198,
        "lon": -127.61762206805037,
        "alt_km": 638.7267806359578,
        "timestamp": "2025-12-15T11:38:36.815263+00:00",
        "meta_object_name": "GAOFEN-1 04",
        "meta_object_id": "2018-031D",
        "meta_epoch": "2025-12-14T23:35:28.918176",
        "meta_mean_motion": 14.76455838,
        "meta_eccentricity": 9.615e-05,
        "meta_inclination": 98.0808,
        "meta_ra_of_asc_node": 46.8192,
        "meta_arg_of_pericenter": 59.0635,
        "meta_mean_anomaly": 301.0668,
        "meta_ephemeris_type": 0,
        "meta_classification_type": "U",
        "meta_norad_cat_id": 43262,
        "meta_element_set_no": 999,
        "meta_rev_at_epoch": 41550,
        "meta_bstar": 0.00015501811,
        "meta_mean_motion_dot": 1.027e-05,
        "meta_mean_motion_ddot": 0,
        "tle_line1": "1 43262U 18031D   25348.98297359  .00001027  00000+0  15502-3 0  9999",
        "tle_line2": "2 43262  98.0808  46.8192 0000961  59.0635 301.0668 14.76455838415506"
      },
      "geometry": {
        "type": "Point",
        "coordinates": [
          -127.61762206805037,
          31.83588219662198
        ]
      }
    },
    {
      "type": "Feature",
      "properties": {
        "norad_id": 43437,
        "name": "SENTINEL-3B",
        "group": "resource",
        "lat": -3.8179186902070237,
        "lon": -125.94929466728904,
        "alt_km": 805.9843227929496,
        "timestamp": "2025-12-15T11:38:36.815273+00:00",
        "meta_object_name": "SENTINEL-3B",
        "meta_object_id": "2018-039A",
        "meta_epoch": "2025-12-14T21:19:12.976032",
        "meta_mean_motion": 14.26734689,
        "meta_eccentricity": 0.00016438,
        "meta_inclination": 98.6266,
        "meta_ra_of_asc_node": 54.043,
        "meta_arg_of_pericenter": 99.9545,
        "meta_mean_anomaly": 260.1821,
        "meta_ephemeris_type": 0,
        "meta_classification_type": "U",
        "meta_norad_cat_id": 43437,
        "meta_element_set_no": 999,
        "meta_rev_at_epoch": 39784,
        "meta_bstar": 7.1664972e-05,
        "meta_mean_motion_dot": 1.3e-06,
        "meta_mean_motion_ddot": 0,
        "tle_line1": "1 43437U 18039A   25348.88834463  .00000130  00000+0  71665-4 0  9990",
        "tle_line2": "2 43437  98.6266  54.0430 0001643  99.9545 260.1821 14.26734689397842"
      },
      "geometry": {
        "type": "Point",
        "coordinates": [
          -125.94929466728904,
          -3.8179186902070237
        ]
      }
    },
    {
      "type": "Feature",
      "properties": {
        "norad_id": 43461,
        "name": "GAOFEN-5 01",
        "group": "resource",
        "lat": 34.30863510113332,
        "lon": 138.31018647654764,
        "alt_km": 690.1872785476344,
        "timestamp": "2025-12-15T11:38:36.815283+00:00",
        "meta_object_name": "GAOFEN-5 01",
        "meta_object_id": "2018-043A",
        "meta_epoch": "2025-12-14T21:49:34.617216",
        "meta_mean_motion": 14.60411973,
        "meta_eccentricity": 8.102e-05,
        "meta_inclination": 98.4327,
        "meta_ra_of_asc_node": 311.9145,
        "meta_arg_of_pericenter": 331.2279,
        "meta_mean_anomaly": 28.8876,
        "meta_ephemeris_type": 0,
        "meta_classification_type": "U",
        "meta_norad_cat_id": 43461,
        "meta_element_set_no": 999,
        "meta_rev_at_epoch": 40479,
        "meta_bstar": 0.00010858328,
        "meta_mean_motion_dot": 4.77e-06,
        "meta_mean_motion_ddot": 0,
        "tle_line1": "1 43461U 18043A   25348.90942844  .00000477  00000+0  10858-3 0  9998",
        "tle_line2": "2 43461  98.4327 311.9145 0000810 331.2279  28.8876 14.60411973404792"
      },
      "geometry": {
        "type": "Point",
        "coordinates": [
          138.31018647654764,
          34.30863510113332
        ]
      }
    },
    {
      "type": "Feature",
      "properties": {
        "norad_id": 43484,
        "name": "GAOFEN-6",
        "group": "resource",
        "lat": -59.31870507384141,
        "lon": 67.022959298393,
        "alt_km": 651.2887386491475,
        "timestamp": "2025-12-15T11:38:36.815293+00:00",
        "meta_object_name": "GAOFEN-6",
        "meta_object_id": "2018-048A",
        "meta_epoch": "2025-12-14T22:54:17.642304",
        "meta_mean_motion": 14.76573293,
        "meta_eccentricity": 0.00131376,
        "meta_inclination": 97.8031,
        "meta_ra_of_asc_node": 53.1467,
        "meta_arg_of_pericenter": 57.2698,
        "meta_mean_anomaly": 302.9777,
        "meta_ephemeris_type": 0,
        "meta_classification_type": "U",
        "meta_norad_cat_id": 43484,
        "meta_element_set_no": 999,
        "meta_rev_at_epoch": 40620,
        "meta_bstar": 0.00021012334,
        "meta_mean_motion_dot": 1.419e-05,
        "meta_mean_motion_ddot": 0,
        "tle_line1": "1 43484U 18048A   25348.95437086  .00001419  00000+0  21012-3 0  9991",
        "tle_line2": "2 43484  97.8031  53.1467 0013137  57.2698 302.9777 14.76573293406205"
      },
      "geometry": {
        "type": "Point",
        "coordinates": [
          67.022959298393,
          -59.31870507384141
        ]
      }
    },
    {
      "type": "Feature",
      "properties": {
        "norad_id": 43585,
        "name": "GAOFEN-11 01",
        "group": "resource",
        "lat": 74.45052376239869,
        "lon": -100.75923475323458,
        "alt_km": 414.44695095300904,
        "timestamp": "2025-12-15T11:38:36.815304+00:00",
        "meta_object_name": "GAOFEN-11 01",
        "meta_object_id": "2018-063A",
        "meta_epoch": "2025-12-14T22:47:45.885696",
        "meta_mean_motion": 15.49289321,
        "meta_eccentricity": 0.00042307,
        "meta_inclination": 97.1568,
        "meta_ra_of_asc_node": 51.8649,
        "meta_arg_of_pericenter": 302.8292,
        "meta_mean_anomaly": 57.2552,
        "meta_ephemeris_type": 0,
        "meta_classification_type": "U",
        "meta_norad_cat_id": 43585,
        "meta_element_set_no": 999,
        "meta_rev_at_epoch": 41176,
        "meta_bstar": 0.00020481715,
        "meta_mean_motion_dot": 0.00011109,
        "meta_mean_motion_ddot": 0,
        "tle_line1": "1 43585U 18063A   25348.94983664  .00011109  00000+0  20482-3 0  9994",
        "tle_line2": "2 43585  97.1568  51.8649 0004230 302.8292  57.2552 15.49289321411760"
      },
      "geometry": {
        "type": "Point",
        "coordinates": [
          -100.75923475323458,
          74.45052376239869
        ]
      }
    },
    {
      "type": "Feature",
      "properties": {
        "norad_id": 43613,
        "name": "ICESAT-2",
        "group": "resource",
        "lat": -7.8165375614431465,
        "lon": -118.24635485817396,
        "alt_km": 486.4452920546264,
        "timestamp": "2025-12-15T11:38:36.815314+00:00",
        "meta_object_name": "ICESAT-2",
        "meta_object_id": "2018-070A",
        "meta_epoch": "2025-12-14T21:32:04.284384",
        "meta_mean_motion": 15.28298004,
        "meta_eccentricity": 0.00025917,
        "meta_inclination": 92.0049,
        "meta_ra_of_asc_node": 241.3195,
        "meta_arg_of_pericenter": 137.3514,
        "meta_mean_anomaly": 222.7937,
        "meta_ephemeris_type": 0,
        "meta_classification_type": "U",
        "meta_norad_cat_id": 43613,
        "meta_element_set_no": 999,
        "meta_rev_at_epoch": 40431,
        "meta_bstar": 0.00031800887,
        "meta_mean_motion_dot": 8.763e-05,
        "meta_mean_motion_ddot": 0,
        "tle_line1": "1 43613U 18070A   25348.89727181  .00008763  00000+0  31801-3 0  9997",
        "tle_line2": "2 43613  92.0049 241.3195 0002591 137.3514 222.7937 15.28298004404312"
      },
      "geometry": {
        "type": "Point",
        "coordinates": [
          -118.24635485817396,
          -7.8165375614431465
        ]
      }
    }
  ]
}